[{"OBJECT_NAME":"ONEWEB-0012","OBJECT_ID":"2019-010A","EPOCH":"2026-01-19T05:21:18.783648","MEAN_MOTION":13.16595278,"ECCENTRICITY":0.00018169,"INCLINATION":87.9015,"RA_OF_ASC_NODE":258.4459,"ARG_OF_PERICENTER":69.9145,"MEAN_ANOMALY":290.2182,"EPHEMERIS_TYPE":0,"CLASSIFICATION_TYPE":"U","NORAD_CAT_ID":44057,"ELEMENT_SET_NO":999,"REV_AT_EPOCH":33196,"BSTAR":2.3420085e-5,"MEAN_MOTION_DOT":2.2e-7,"MEAN_MOTION_DDOT":0},{"OBJECT_NAME":"ONEWEB-0010","OBJECT_ID":"2019-010B","EPOCH":"2026-01-19T02:18:55.269792","MEAN_MOTION":13.1659543,"ECCENTRICITY":0.00010784,"INCLINATION":87.9023,"RA_OF_ASC_NODE":258.4646,"ARG_OF_PERICENTER":77.9976,"MEAN_ANOMALY":282.1276,"EPHEMERIS_TYPE":0,"CLASSIFICATION_TYPE":"U","NORAD_CAT_ID":44058,"ELEMENT_SET_NO":999,"REV_AT_EPOCH":33199,"BSTAR":0.00028009198,"MEAN_MOTION_DOT":1.2e-6,"MEAN_MOTION_DDOT":0},{"OBJECT_NAME":"ONEWEB-0008","OBJECT_ID":"2019-010C","EPOCH":"2026-01-19T02:55:24.146400","MEAN_MOTION":13.16595047,"ECCENTRICITY":0.00015984,"INCLINATION":87.9026,"RA_OF_ASC_NODE":258.457,"ARG_OF_PERICENTER":85.7005,"MEAN_ANOMALY":274.4308,"EPHEMERIS_TYPE":0,"CLASSIFICATION_TYPE":"U","NORAD_CAT_ID":44059,"ELEMENT_SET_NO":999,"REV_AT_EPOCH":33211,"BSTAR":0.00029686493,"MEAN_MOTION_DOT":1.26e-6,"MEAN_MOTION_DDOT":0},{"OBJECT_NAME":"ONEWEB-0007","OBJECT_ID":"2019-010D","EPOCH":"2026-01-19T06:24:00.361440","MEAN_MOTION":13.15546973,"ECCENTRICITY":0.00014985,"INCLINATION":87.9005,"RA_OF_ASC_NODE":288.9526,"ARG_OF_PERICENTER":62.0414,"MEAN_ANOMALY":298.0868,"EPHEMERIS_TYPE":0,"CLASSIFICATION_TYPE":"U","NORAD_CAT_ID":44060,"ELEMENT_SET_NO":999,"REV_AT_EPOCH":33179,"BSTAR":0.00066798914,"MEAN_MOTION_DOT":2.64e-6,"MEAN_MOTION_DDOT":0},{"OBJECT_NAME":"ONEWEB-0006","OBJECT_ID":"2019-010E","EPOCH":"2026-01-19T06:29:41.768448","MEAN_MOTION":13.1555076,"ECCENTRICITY":0.00013603,"INCLINATION":87.9013,"RA_OF_ASC_NODE":288.9011,"ARG_OF_PERICENTER":70.5898,"MEAN_ANOMALY":289.538,"EPHEMERIS_TYPE":0,"CLASSIFICATION_TYPE":"U","NORAD_CAT_ID":44061,"ELEMENT_SET_NO":999,"REV_AT_EPOCH":33184,"BSTAR":0.00042394069,"MEAN_MOTION_DOT":1.72e-6,"MEAN_MOTION_DDOT":0},{"OBJECT_NAME":"ONEWEB-0011","OBJECT_ID":"2019-010F","EPOCH":"2026-01-19T05:44:04.624224","MEAN_MOTION":13.15548816,"ECCENTRICITY":0.00015322,"INCLINATION":87.9012,"RA_OF_ASC_NODE":288.916,"ARG_OF_PERICENTER":83.3331,"MEAN_ANOMALY":276.7974,"EPHEMERIS_TYPE":0,"CLASSIFICATION_TYPE":"U","NORAD_CAT_ID":44062,"ELEMENT_SET_NO":999,"REV_AT_EPOCH":33183,"BSTAR":-0.00024402994,"MEAN_MOTION_DOT":-7.9e-7,"MEAN_MOTION_DDOT":0},{"OBJECT_NAME":"ONEWEB-0013","OBJECT_ID":"2020-008A","EPOCH":"2026-01-19T05:52:14.407680","MEAN_MOTION":13.09442236,"ECCENTRICITY":0.0002438,"INCLINATION":87.8476,"RA_OF_ASC_NODE":82.9146,"ARG_OF_PERICENTER":81.0919,"MEAN_ANOMALY":279.0484,"EPHEMERIS_TYPE":0,"CLASSIFICATION_TYPE":"U","NORAD_CAT_ID":45131,"ELEMENT_SET_NO":999,"REV_AT_EPOCH":28657,"BSTAR":0.0017719608,"MEAN_MOTION_DOT":6.23e-6,"MEAN_MOTION_DDOT":0},{"OBJECT_NAME":"ONEWEB-0017","OBJECT_ID":"2020-008B","EPOCH":"2026-01-19T04:17:42.039456","MEAN_MOTION":13.10376329,"ECCENTRICITY":0.00015885,"INCLINATION":87.8771,"RA_OF_ASC_NODE":65.9744,"ARG_OF_PERICENTER":102.0734,"MEAN_ANOMALY":258.0572,"EPHEMERIS_TYPE":0,"CLASSIFICATION_TYPE":"U","NORAD_CAT_ID":45132,"ELEMENT_SET_NO":999,"REV_AT_EPOCH":28843,"BSTAR":0.0013254161,"MEAN_MOTION_DOT":4.75e-6,"MEAN_MOTION_DDOT":0},{"OBJECT_NAME":"ONEWEB-0020","OBJECT_ID":"2020-008C","EPOCH":"2026-01-19T03:34:38.961984","MEAN_MOTION":13.10372097,"ECCENTRICITY":0.00019193,"INCLINATION":87.8774,"RA_OF_ASC_NODE":65.9687,"ARG_OF_PERICENTER":104.118,"MEAN_ANOMALY":256.0161,"EPHEMERIS_TYPE":0,"CLASSIFICATION_TYPE":"U","NORAD_CAT_ID":45133,"ELEMENT_SET_NO":999,"REV_AT_EPOCH":28882,"BSTAR":-0.0020793461,"MEAN_MOTION_DOT":-7.13e-6,"MEAN_MOTION_DDOT":0},{"OBJECT_NAME":"ONEWEB-0021","OBJECT_ID":"2020-008D","EPOCH":"2026-01-19T03:56:10.237632","MEAN_MOTION":13.10376304,"ECCENTRICITY":0.00017343,"INCLINATION":87.8772,"RA_OF_ASC_NODE":65.9934,"ARG_OF_PERICENTER":94.9639,"MEAN_ANOMALY":265.1686,"EPHEMERIS_TYPE":0,"CLASSIFICATION_TYPE":"U","NORAD_CAT_ID":45134,"ELEMENT_SET_NO":999,"REV_AT_EPOCH":28913,"BSTAR":-0.00095731351,"MEAN_MOTION_DOT":-3.22e-6,"MEAN_MOTION_DDOT":0},{"OBJECT_NAME":"ONEWEB-0023","OBJECT_ID":"2020-008F","EPOCH":"2026-01-19T04:11:43.302336","MEAN_MOTION":13.10375926,"ECCENTRICITY":0.0001931,"INCLINATION":87.8767,"RA_OF_ASC_NODE":65.9712,"ARG_OF_PERICENTER":94.1119,"MEAN_ANOMALY":266.0229,"EPHEMERIS_TYPE":0,"CLASSIFICATION_TYPE":"U","NORAD_CAT_ID":45136,"ELEMENT_SET_NO":999,"REV_AT_EPOCH":28856,"BSTAR":0.00074658008,"MEAN_MOTION_DOT":2.73e-6,"MEAN_MOTION_DDOT":0},{"OBJECT_NAME":"ONEWEB-0024","OBJECT_ID":"2020-008G","EPOCH":"2026-01-19T03:32:15.749664","MEAN_MOTION":13.10371487,"ECCENTRICITY":0.00017457,"INCLINATION":87.8779,"RA_OF_ASC_NODE":65.9547,"ARG_OF_PERICENTER":99.1209,"MEAN_ANOMALY":261.0115,"EPHEMERIS_TYPE":0,"CLASSIFICATION_TYPE":"U","NORAD_CAT_ID":45137,"ELEMENT_SET_NO":999,"REV_AT_EPOCH":28872,"BSTAR":-0.0017704775,"MEAN_MOTION_DOT":-6.05e-6,"MEAN_MOTION_DDOT":0},{"OBJECT_NAME":"ONEWEB-0025","OBJECT_ID":"2020-008H","EPOCH":"2026-01-19T03:57:22.037760","MEAN_MOTION":13.1037648,"ECCENTRICITY":0.00019932,"INCLINATION":87.8777,"RA_OF_ASC_NODE":65.9504,"ARG_OF_PERICENTER":90.1931,"MEAN_ANOMALY":269.9425,"EPHEMERIS_TYPE":0,"CLASSIFICATION_TYPE":"U","NORAD_CAT_ID":45138,"ELEMENT_SET_NO":999,"REV_AT_EPOCH":28905,"BSTAR":-0.00077333822,"MEAN_MOTION_DOT":-2.57e-6,"MEAN_MOTION_DDOT":0},{"OBJECT_NAME":"ONEWEB-0026","OBJECT_ID":"2020-008J","EPOCH":"2026-01-18T23:57:39.924864","MEAN_MOTION":13.11416972,"ECCENTRICITY":0.00017139,"INCLINATION":87.882,"RA_OF_ASC_NODE":50.7618,"ARG_OF_PERICENTER":100.5289,"MEAN_ANOMALY":259.6032,"EPHEMERIS_TYPE":0,"CLASSIFICATION_TYPE":"U","NORAD_CAT_ID":45139,"ELEMENT_SET_NO":999,"REV_AT_EPOCH":29155,"BSTAR":0.001577121,"MEAN_MOTION_DOT":5.72e-6,"MEAN_MOTION_DDOT":0},{"OBJECT_NAME":"ONEWEB-0028","OBJECT_ID":"2020-008K","EPOCH":"2026-01-19T08:04:43.752000","MEAN_MOTION":13.11417686,"ECCENTRICITY":0.00022026,"INCLINATION":87.8813,"RA_OF_ASC_NODE":50.7058,"ARG_OF_PERICENTER":81.1586,"MEAN_ANOMALY":278.9791,"EPHEMERIS_TYPE":0,"CLASSIFICATION_TYPE":"U","NORAD_CAT_ID":45140,"ELEMENT_SET_NO":999,"REV_AT_EPOCH":28911,"BSTAR":-0.0013907702,"MEAN_MOTION_DOT":-4.8e-6,"MEAN_MOTION_DDOT":0},{"OBJECT_NAME":"ONEWEB-0032","OBJECT_ID":"2020-008L","EPOCH":"2026-01-19T04:20:05.606880","MEAN_MOTION":13.10375608,"ECCENTRICITY":0.00019425,"INCLINATION":87.8772,"RA_OF_ASC_NODE":65.9743,"ARG_OF_PERICENTER":93.9985,"MEAN_ANOMALY":266.1365,"EPHEMERIS_TYPE":0,"CLASSIFICATION_TYPE":"U","NORAD_CAT_ID":45141,"ELEMENT_SET_NO":999,"REV_AT_EPOCH":28878,"BSTAR":0.0014084522,"MEAN_MOTION_DOT":5.04e-6,"MEAN_MOTION_DDOT":0},{"OBJECT_NAME":"ONEWEB-0033","OBJECT_ID":"2020-008M","EPOCH":"2026-01-19T03:44:12.530112","MEAN_MOTION":13.10375173,"ECCENTRICITY":0.00014643,"INCLINATION":87.8768,"RA_OF_ASC_NODE":65.9905,"ARG_OF_PERICENTER":113.4353,"MEAN_ANOMALY":246.6929,"EPHEMERIS_TYPE":0,"CLASSIFICATION_TYPE":"U","NORAD_CAT_ID":45142,"ELEMENT_SET_NO":999,"REV_AT_EPOCH":28869,"BSTAR":-0.001706423,"MEAN_MOTION_DOT":-5.83e-6,"MEAN_MOTION_DDOT":0}]
