ONEWEB-0012             
1 44057U 19010A   26019.22313407  .00000022  00000+0  23420-4 0  9999
2 44057  87.9015 258.4459 0001816  69.9145 290.2182 13.16595278331962
ONEWEB-0010             
1 44058U 19010B   26019.09647303  .00000120  00000+0  28009-3 0  9996
2 44058  87.9023 258.4646 0001078  77.9976 282.1276 13.16595430331998
ONEWEB-0008             
1 44059U 19010C   26019.12180725  .00000126  00000+0  29686-3 0  9999
2 44059  87.9026 258.4570 0001598  85.7005 274.4308 13.16595047332114
ONEWEB-0007             
1 44060U 19010D   26019.26667085  .00000264  00000+0  66799-3 0  9994
2 44060  87.9005 288.9526 0001498  62.0414 298.0868 13.15546973331792
ONEWEB-0006             
1 44061U 19010E   26019.27062232  .00000172  00000+0  42394-3 0  9992
2 44061  87.9013 288.9011 0001360  70.5898 289.5380 13.15550760331848
ONEWEB-0011             
1 44062U 19010F   26019.23894241 -.00000079  00000+0 -24403-3 0  9991
2 44062  87.9012 288.9160 0001532  83.3331 276.7974 13.15548816331833
ONEWEB-0013             
1 45131U 20008A   26019.24461120  .00000623  00000+0  17720-2 0  9991
2 45131  87.8476  82.9146 0002438  81.0919 279.0484 13.09442236286577
ONEWEB-0017             
1 45132U 20008B   26019.17895879  .00000475  00000+0  13254-2 0  9999
2 45132  87.8771  65.9744 0001588 102.0734 258.0572 13.10376329288438
ONEWEB-0020             
1 45133U 20008C   26019.14906206 -.00000713  00000+0 -20793-2 0  9997
2 45133  87.8774  65.9687 0001919 104.1180 256.0161 13.10372097288827
ONEWEB-0021             
1 45134U 20008D   26019.16400738 -.00000322  00000+0 -95731-3 0  9990
2 45134  87.8772  65.9934 0001734  94.9639 265.1686 13.10376304289134
ONEWEB-0023             
1 45136U 20008F   26019.17480674  .00000273  00000+0  74658-3 0  9998
2 45136  87.8767  65.9712 0001931  94.1119 266.0229 13.10375926288566
ONEWEB-0024             
1 45137U 20008G   26019.14740451 -.00000605  00000+0 -17705-2 0  9998
2 45137  87.8779  65.9547 0001745  99.1209 261.0115 13.10371487288729
ONEWEB-0025             
1 45138U 20008H   26019.16483840 -.00000257  00000+0 -77334-3 0  9995
2 45138  87.8777  65.9504 0001993  90.1931 269.9425 13.10376480289055
ONEWEB-0026             
1 45139U 20008J   26018.99837876  .00000572  00000+0  15771-2 0  9992
2 45139  87.8820  50.7618 0001713 100.5289 259.6032 13.11416972291555
ONEWEB-0028             
1 45140U 20008K   26019.33661750 -.00000480  00000+0 -13908-2 0  9999
2 45140  87.8813  50.7058 0002202  81.1586 278.9791 13.11417686289113
ONEWEB-0032             
1 45141U 20008L   26019.18062045  .00000504  00000+0  14085-2 0  9997
2 45141  87.8772  65.9743 0001942  93.9985 266.1365 13.10375608288785
ONEWEB-0033             
1 45142U 20008M   26019.15570058 -.00000583  00000+0 -17064-2 0  9992
2 45142  87.8768  65.9905 0001464 113.4353 246.6929 13.10375173288693
